317P/WISE,e,11.9739,275.4703,334.8633,2.960086,0.1935297,0.57188169,292.0930,11/14.0/2024,2000,g 17.5,4.0
# From MPC102103
318P/McNaught-Hartley,e,17.8707,35.5804,313.3254,7.512645,0.0478646,0.67376395,158.3682,11/14.0/2024,2000,g  8.5,6.0
# From MPC 97499
319P/Catalina-McNaught,e,15.0942,111.3456,203.6383,3.563075,0.1465435,0.66627563,140.5510,11/14.0/2024,2000,g 15.0,4.0
# From MPC 96281
320P/McNaught,e,4.9027,295.9394,0.7655,3.095508,0.1809698,0.68479792,253.0529,11/14.0/2024,2000,g 20.5,4.0
# From MPC105243
321P/SOHO,e,20.0658,165.0205,172.7457,2.422187,0.2614523,0.98102670,0.0000,10/26.5846/2023,2000,g 20.0,4.0
# From MPC102103
322P/SOHO,e,11.4597,351.4264,56.9934,2.508494,0.2480759,0.97996838,0.0000,08/21.1238/2023,2000,g 19.0,4.0
# From MPEC 2023-XP6
323P/SOHO,e,5.3271,324.2805,353.1249,2.583928,0.2372922,0.98461345,0.0000,03/14.2955/2025,2000,g 20.0,4.0
# From MPEC 2024-F21
323P-B/SOHO,e,5.4589,323.4623,353.9661,2.889374,0.2006774,0.98611305,0.0000,12/16.2785/2025,2000,g 26.0,4.0
# From MPEC 2024-F21
323P-C/SOHO,e,5.3401,324.1988,353.2064,2.610875,0.2336281,0.98476184,0.0000,04/07.1027/2025,2000,g 27.0,4.0
# From MPEC 2021-W31
324P/LaSagra,e,21.3991,270.5706,57.5000,3.096482,0.1808845,0.15295744,233.3858,11/14.0/2024,2000,g 13.0,4.0
# From MPEC 2024-LE0
325P/Yang-Gao,e,16.8489,256.8554,344.9380,3.547248,0.1475254,0.58838439,142.2247,11/14.0/2024,2000,g 14.0,4.0
# From MPEC 2024-LE0
326P/Hill,e,2.4728,99.7604,278.4336,4.071690,0.1199615,0.32046920,38.4407,11/14.0/2024,2000,g 13.5,4.0
# From MPEC 2024-M41
327P/VanNess,e,36.2395,173.9954,185.0439,3.562733,0.1465647,0.56272623,117.8177,11/14.0/2024,2000,g 16.0,4.0
# From MPEC 2024-VJ2
328P/LONEOS-Tucker,e,17.6724,341.6022,30.6667,4.190282,0.1149051,0.55291705,12.5295,11/14.0/2024,2000,g 14.5,4.0
# From MPC101101
329P/LINEAR-Catalina,e,21.7187,87.6876,343.5819,5.183620,0.0835130,0.67888671,272.6890,11/14.0/2024,2000,g 13.5,4.0
# From MPEC 2023-J29
330P/Catalina,e,15.7359,293.0816,188.8217,6.616404,0.0579123,0.55027715,173.6662,11/14.0/2024,2000,g 12.0,4.0
# From MPEC 2024-Q20
331P/Gibbs,e,9.7401,216.7478,185.3280,3.003592,0.1893401,0.04151845,283.4488,11/14.0/2024,2000,g 12.0,4.0
# From MPEC 2016-K18
332P/Ikeya-Murakami,e,9.3840,3.7558,152.2887,3.086501,0.1817626,0.48963417,215.1575,11/14.0/2024,2000,g 18.0,4.0
# From MPEC 2016-K18
332P-A/Ikeya-Murakami,e,9.3844,152.3112,3.7339,3.086490,0.1817635,0.48964031,215.1566,11/14.0/2024,2000,g  9.0,4.0
# From MPEC 2016-EI8
332P-B/Ikeya-Murakami,e,9.3805,3.8028,152.3711,3.082329,0.1821317,0.48970701,359.9699,03/17.0/2016,2000,g 19.0,4.0
# From MPEC 2016-K18
332P-C/Ikeya-Murakami,e,9.3835,152.3025,3.7343,3.086456,0.1817665,0.48964587,215.1743,11/14.0/2024,2000,g 16.5,4.0
# From MPEC 2016-ED0
332P-D/Ikeya-Murakami,e,9.3761,3.7923,152.4393,3.081138,0.1822373,0.48977814,359.9486,03/17.0/2016,2000,g 19.0,4.0
# From MPEC 2016-ED0
332P-E/Ikeya-Murakami,e,9.3774,3.8228,152.2825,3.079877,0.1823493,0.48922008,359.9889,03/17.0/2016,2000,g 21.0,4.0
# From MPEC 2016-ED0
332P-F/Ikeya-Murakami,e,9.5293,3.4757,152.8203,3.163214,0.1751908,0.49918860,359.8501,03/17.0/2016,2000,g 21.0,4.0
# From MPEC 2016-ED0
332P-G/Ikeya-Murakami,e,9.2523,3.6955,154.4000,3.050519,0.1849880,0.49200362,359.9006,03/19.0/2016,2000,g 19.0,4.0
# From MPC100285
332P-H/Ikeya-Murakami,e,9.3840,152.3031,3.7340,3.086637,0.1817505,0.48968164,215.0900,11/14.0/2024,2000,g 19.0,4.0
# From MPEC 2016-ED0
332P-I/Ikeya-Murakami,e,9.3791,3.8048,152.3297,3.081767,0.1821815,0.48955490,359.9360,03/17.0/2016,2000,g 20.5,2.0
# From MPEC 2016-EI8
332P-J/Ikeya-Murakami,e,9.4296,3.6729,152.7712,3.115165,0.1792596,0.49429435,359.8613,03/17.0/2016,2000,g 20.5,2.0
# From MPEC 2024-VJ2
333P/LINEAR,e,132.0219,115.7056,26.0174,4.220793,0.1136614,0.73631912,358.2611,11/14.0/2024,2000,g 15.0,4.0
# From MPEC 2023-J29
334P/NEAT,e,20.3693,90.4247,90.0401,6.827105,0.0552522,0.35149162,150.3193,11/14.0/2024,2000,g 10.5,4.0
# From MPEC 2023-M14
335P/Gibbs,e,7.2957,330.8028,162.3061,3.577439,0.1456618,0.54669040,120.1331,11/14.0/2024,2000,g 16.8,4.0
# From MPC105244
336P/McNaught,e,17.8375,298.1986,308.6230,5.037650,0.0871690,0.44461900,248.4523,11/14.0/2024,2000,g 13.5,4.0
# From MPEC 2024-A43
337P/WISE,e,16.0350,103.6204,163.9558,3.302607,0.1642172,0.49866096,141.6877,11/14.0/2024,2000,g 17.0,4.0
# From MPEC 2024-VJ2
338P/McNaught,e,25.3830,9.7898,4.5981,3.894327,0.1282495,0.41250551,13.1719,11/14.0/2024,2000,g 12.0,4.0
# From MPC101101
339P/Gibbs,e,5.7334,27.4694,172.6815,3.699202,0.1385294,0.63566269,61.1023,11/14.0/2024,2000,g 17.0,4.0
# From MPC133426
340P/Boattini,e,2.0788,291.6604,36.0693,4.247991,0.1125716,0.28017237,327.5499,11/14.0/2024,2000,g 14.3,4.0
# From MPEC 2023-J29
341P/Gibbs,e,3.7964,29.9574,312.3522,4.286409,0.1110615,0.41526051,342.2651,11/14.0/2024,2000,g 12.5,4.0
# From MPC101101
342P/SOHO,e,11.6955,73.3241,27.6330,3.041023,0.1858551,0.98296087,0.0000,02/07.5904/2027,2000,g  9.0,4.0
# From MPEC 2024-PC5
343P/NEAT-LONEOS,e,5.5976,257.0547,137.6027,5.457513,0.0773058,0.58509409,219.6215,11/14.0/2024,2000,g 14.0,4.0
# From MPEC 2023-J29
344P/Read,e,3.4994,273.1010,140.5925,4.856306,0.0920969,0.42380975,269.5041,11/14.0/2024,2000,g 13.0,4.0
# From MPEC 2024-TP3
345P/LINEAR,e,2.7281,154.5119,196.6873,4.031416,0.1217636,0.22126279,9.1733,11/14.0/2024,2000,g 12.0,4.0
# From MPEC 2022-K19
346P/Catalina,e,22.2191,102.4576,336.0431,4.469416,0.1043105,0.50392114,294.7868,11/14.0/2024,2000,g 14.0,4.0
# From MPEC 2024-RQ6
347P/PANSTARRS,e,11.7659,260.9913,98.2025,3.602744,0.1441299,0.38684242,69.6887,11/14.0/2024,2000,g 15.0,4.0
# From MPEC 2022-ED3
348P/PANSTARRS,e,17.7400,312.9195,135.7430,3.151772,0.1761457,0.30746573,176.9943,11/14.0/2024,2000,g 14.0,4.0
# From MPEC 2024-LE0
349P/Lemmon,e,5.4886,331.7437,255.7768,3.578411,0.1456024,0.29856646,24.8920,11/14.0/2024,2000,g 14.0,4.0
# From MPC111775
350P/McNaught,e,7.3638,65.2921,140.0431,4.081074,0.1195480,0.09457258,301.6115,11/14.0/2024,2000,g 14.0,4.0
# From MPC105244
351P/Wiegert-PANSTARRS,e,12.7745,352.6735,283.3042,4.440639,0.1053261,0.29472572,346.0616,11/14.0/2024,2000,g 12.5,4.0
# From MPEC 2023-J29
352P/Skiff,e,21.0093,28.0268,309.3988,6.653954,0.0574228,0.61640879,155.2580,11/14.0/2024,2000,g 13.2,4.0
# From MPEC 2020-AA5
353P/McNaught,e,28.4175,121.5168,230.4950,4.170664,0.1157168,0.46984501,291.2152,11/14.0/2024,2000,g 14.5,4.0
# From MPEC 2024-EF7
354P/LINEAR,e,5.2506,320.0663,132.8671,2.290090,0.2843971,0.12449437,112.8818,11/14.0/2024,2000,g 15.5,4.0
# From MPEC 2023-CD7
355P/LINEAR-NEAT,e,11.0461,51.4297,336.2895,3.468771,0.1525600,0.50808136,34.5807,11/14.0/2024,2000,g 15.5,2.0
# From MPEC 2022-F14
356P/WISE,e,9.6408,160.8000,226.1813,4.153443,0.1164372,0.35600750,293.0280,11/14.0/2024,2000,g 14.0,4.0
# From MPC114609
357P/Hill,e,6.3137,44.5765,1.4786,4.455496,0.1047997,0.43612635,246.8822,11/14.0/2024,2000,g 15.5,4.0
# From MPEC 2024-EF7
358P/PANSTARRS,e,11.0667,85.6668,299.4272,3.147001,0.1765463,0.23955374,65.3476,11/14.0/2024,2000,g 18.0,4.0
# From MPC110086
359P/LONEOS,e,10.2625,149.7592,200.2997,4.641705,0.0985571,0.32334822,260.1317,11/14.0/2024,2000,g 13.5,4.0
# From MPEC 2024-VJ2
360P/WISE,e,24.1093,2.1775,354.2857,3.697095,0.1386478,0.49915256,5.7166,11/14.0/2024,2000,g 19.5,6.0
# From MPEC 2023-CD7
361P/Spacewatch,e,13.9003,203.2454,219.0930,4.933174,0.0899527,0.43961155,208.8716,11/14.0/2024,2000,g 12.0,4.0
# From MPC114609
363P/Lemmon,e,5.3900,146.6325,340.8757,3.574434,0.1458455,0.51856555,0.1170,11/14.0/2024,2000,g 17.5,4.0
# From MPEC 2024-M41
364P/PANSTARRS,e,12.0188,46.0591,212.4763,2.895512,0.2000397,0.72016010,110.0131,11/14.0/2024,2000,g 17.0,2.0
# From MPC111775
365P/PANSTARRS,e,9.8501,86.6571,67.4183,3.156346,0.1757629,0.58151027,70.5824,11/14.0/2024,2000,g 17.0,4.0
# From MPC114610
366P/Spacewatch,e,8.8570,70.7227,153.0050,3.499431,0.1505594,0.34847330,348.2685,11/14.0/2024,2000,g 15.0,4.0
# From MPC112395
367P/Catalina,e,8.4596,58.6614,172.6995,3.511024,0.1498144,0.27999305,351.2230,11/14.0/2024,2000,g 17.5,2.0
# From MPC114610
368P/NEAT,e,15.4826,257.8555,118.9805,5.533748,0.0757138,0.62604299,170.4436,11/14.0/2024,2000,g 14.0,4.0
# From MPC114610
369P/Hill,e,10.3215,47.2938,13.2147,4.379183,0.1075510,0.55595836,238.4985,11/14.0/2024,2000,g 15.0,4.0
# From MPEC 2021-F20
370P/NEAT,e,19.4226,55.0825,356.7655,6.438587,0.0603279,0.61541599,141.5466,11/14.0/2024,2000,g 13.0,4.0
# From MPC114610
371P/LINEAR-Skiff,e,17.3853,67.2828,308.5718,4.180425,0.1153117,0.47677498,257.0529,11/14.0/2024,2000,g 16.0,4.0
# From MPEC 2020-K19
372P/McNaught,e,9.5059,27.5519,326.0117,4.511696,0.1028476,0.15151183,227.6231,11/14.0/2024,2000,g 13.5,4.0
# From MPEC 2021-F20
373P/Rinner,e,13.7702,231.9402,221.0921,3.797927,0.1331632,0.39374847,272.1263,11/14.0/2024,2000,g 14.5,4.0
# From MPC114610
374P/Larson,e,10.7628,7.8873,51.5454,4.971026,0.0889273,0.46376722,189.4816,11/14.0/2024,2000,g 14.0,4.0
# From MPEC 2021-F20
375P/Hill,e,17.3697,359.8647,119.4122,5.546084,0.0754613,0.66004195,162.4794,11/14.0/2024,2000,g 16.0,4.0
# From MPEC 2024-RQ6
376P/LONEOS,e,1.1662,312.8507,285.3935,5.756516,0.0713616,0.51374173,134.7249,11/14.0/2024,2000,g 12.5,4.0
# From MPEC 2022-N37
377P/Scotti,e,9.0266,225.9961,354.8693,6.696106,0.0568814,0.25118566,90.3668,11/14.0/2024,2000,g  9.5,4.0
# From MPEC 2024-VJ2
378P/McNaught,e,19.1546,93.7985,193.3582,6.289473,0.0624860,0.46426956,93.5484,11/14.0/2024,2000,g 12.0,4.0
# From MPC115889
379P/Spacewatch,e,12.4370,30.4768,184.5475,3.485854,0.1514399,0.35017253,289.4989,11/14.0/2024,2000,g 15.0,4.0
# From MPEC 2023-C45
380P/PANSTARRS,e,8.0244,127.8711,87.8729,4.434368,0.1055496,0.33548210,216.0604,11/14.0/2024,2000,g 12.5,4.0
# From MPEC 2021-J28
381P/LINEAR-Spacewatch,e,28.3504,173.3056,173.8540,7.144518,0.0516113,0.68086958,96.8258,11/14.0/2024,2000,g 17.5,2.0
# From MPEC 2024-MB8
382P/Larson,e,8.2593,171.1373,162.1774,5.913524,0.0685385,0.26839626,75.4572,11/14.0/2024,2000,g  8.0,4.0
# From MPEC 2022-OB6
